STARLINK-5213           
1 54093U 22136AU  25172.41275661  .00000149  00000+0  27473-4 0  9994
2 54093  53.2187  66.7889 0001417  89.6126 270.5028 15.08836143147542
STARLINK-5219           
1 54094U 22136AV  25172.42012685  .00000149  00000+0  27441-4 0  9996
2 54094  53.2180  66.8346 0001329  86.1669 273.9475 15.08836019147546
STARLINK-5193           
1 54095U 22136AW  25172.73659041 -.00000185  00000+0  64947-5 0  9998
2 54095  53.2190  65.2540 0001379  95.4401 264.6748 15.08831270148061
STARLINK-5188           
1 54096U 22136AX  25172.41644488  .00000045  00000+0  20917-4 0  9995
2 54096  53.2189  66.8145 0001433  97.9841 262.1313 15.08834931147544
STARLINK-5197           
1 54097U 22136AY  25172.88796073 -.00000001  00000+0  18027-4 0  9997
2 54097  53.2190  39.8337 0001348  88.2891 271.8256 15.08836191148435
STARLINK-5217           
1 54098U 22136AZ  25172.73394607  .00000229  00000+0  32472-4 0  9990
2 54098  53.2183  65.9296 0001338  90.9561 269.1585 15.08833467148051
STARLINK-5198           
1 54099U 22136BA  25172.39432946  .00000219  00000+0  31840-4 0  9999
2 54099  53.2189  66.6734 0001490  91.4307 268.6856 15.08839673147549
STARLINK-5185           
1 54100U 22136BB  25172.74028506  .00000546  00000+0  52388-4 0  9997
2 54100  53.2196  65.2784 0001540  96.8228 263.2940 15.08826118148060
STARLINK-5204           
1 54101U 22136BC  25171.94588925  .00000424  00000+0  44745-4 0  9998
2 54101  53.2171  53.8936 0001467  89.7482 270.3678 15.08841129148153
STARLINK-5179           
1 54102U 22136BD  25172.43855151 -.00000461  00000+0 -10885-4 0  9993
2 54102  53.2178  66.9386 0001382  88.0049 272.1102 15.08845854147545
STARLINK-5200           
1 54103U 22136BE  25172.67589152  .00004109  00000+0  27623-3 0  9993
2 54103  53.2181  45.6402 0001582  90.3970 269.7204 15.08826521148337
STARLINK-5203           
1 54104U 22136BF  25171.32851196 -.00000309  00000+0 -13205-5 0  9998
2 54104  53.2177  36.4604 0001521  90.2627 269.8539 15.08836634147872
STARLINK-5290           
1 54157U 22141A   25172.80747515  .00002623  00000+0  18274-3 0  9993
2 54157  53.2171 105.2128 0001384  89.0938 271.0213 15.08858596146333
STARLINK-5297           
1 54158U 22141B   25172.09631784  .00000473  00000+0  47800-4 0  9994
2 54158  53.2181 108.5900 0001201  78.1650 281.9477 15.08835106146229
