[
  {
    "OBJECT_NAME": "STARLINK-5213",
    "OBJECT_ID": "2022-136AU",
    "EPOCH": "2025-06-21T09:54:22.171104",
    "MEAN_MOTION": 15.08836143,
    "ECCENTRICITY": 0.0001417,
    "INCLINATION": 53.2187,
    "RA_OF_ASC_NODE": 66.7889,
    "ARG_OF_PERICENTER": 89.6126,
    "MEAN_ANOMALY": 270.5028,
    "EPHEMERIS_TYPE": 0,
    "CLASSIFICATION_TYPE": "U",
    "NORAD_CAT_ID": 54093,
    "ELEMENT_SET_NO": 999,
    "REV_AT_EPOCH": 14754,
    "BSTAR": 2.7473e-05,
    "MEAN_MOTION_DOT": 1.49e-06,
    "MEAN_MOTION_DDOT": 0
  },
  {
    "OBJECT_NAME": "STARLINK-5219",
    "OBJECT_ID": "2022-136AV",
    "EPOCH": "2025-06-21T10:04:58.959840",
    "MEAN_MOTION": 15.08836019,
    "ECCENTRICITY": 0.0001329,
    "INCLINATION": 53.218,
    "RA_OF_ASC_NODE": 66.8346,
    "ARG_OF_PERICENTER": 86.1669,
    "MEAN_ANOMALY": 273.9475,
    "EPHEMERIS_TYPE": 0,
    "CLASSIFICATION_TYPE": "U",
    "NORAD_CAT_ID": 54094,
    "ELEMENT_SET_NO": 999,
    "REV_AT_EPOCH": 14754,
    "BSTAR": 2.7441e-05,
    "MEAN_MOTION_DOT": 1.49e-06,
    "MEAN_MOTION_DDOT": 0
  },
  {
    "OBJECT_NAME": "STARLINK-5193",
    "OBJECT_ID": "2022-136AW",
    "EPOCH": "2025-06-21T17:40:41.411424",
    "MEAN_MOTION": 15.0883127,
    "ECCENTRICITY": 0.0001379,
    "INCLINATION": 53.219,
    "RA_OF_ASC_NODE": 65.254,
    "ARG_OF_PERICENTER": 95.4401,
    "MEAN_ANOMALY": 264.6748,
    "EPHEMERIS_TYPE": 0,
    "CLASSIFICATION_TYPE": "U",
    "NORAD_CAT_ID": 54095,
    "ELEMENT_SET_NO": 999,
    "REV_AT_EPOCH": 14806,
    "BSTAR": 6.4947e-06,
    "MEAN_MOTION_DOT": -1.85e-06,
    "MEAN_MOTION_DDOT": 0
  },
  {
    "OBJECT_NAME": "STARLINK-5188",
    "OBJECT_ID": "2022-136AX",
    "EPOCH": "2025-06-21T09:59:40.837632",
    "MEAN_MOTION": 15.08834931,
    "ECCENTRICITY": 0.0001433,
    "INCLINATION": 53.2189,
    "RA_OF_ASC_NODE": 66.8145,
    "ARG_OF_PERICENTER": 97.9841,
    "MEAN_ANOMALY": 262.1313,
    "EPHEMERIS_TYPE": 0,
    "CLASSIFICATION_TYPE": "U",
    "NORAD_CAT_ID": 54096,
    "ELEMENT_SET_NO": 999,
    "REV_AT_EPOCH": 14754,
    "BSTAR": 2.0917e-05,
    "MEAN_MOTION_DOT": 4.5e-07,
    "MEAN_MOTION_DDOT": 0
  },
  {
    "OBJECT_NAME": "STARLINK-5197",
    "OBJECT_ID": "2022-136AY",
    "EPOCH": "2025-06-21T21:18:39.807072",
    "MEAN_MOTION": 15.08836191,
    "ECCENTRICITY": 0.0001348,
    "INCLINATION": 53.219,
    "RA_OF_ASC_NODE": 39.8337,
    "ARG_OF_PERICENTER": 88.2891,
    "MEAN_ANOMALY": 271.8256,
    "EPHEMERIS_TYPE": 0,
    "CLASSIFICATION_TYPE": "U",
    "NORAD_CAT_ID": 54097,
    "ELEMENT_SET_NO": 999,
    "REV_AT_EPOCH": 14843,
    "BSTAR": 1.8027e-05,
    "MEAN_MOTION_DOT": -1e-08,
    "MEAN_MOTION_DDOT": 0
  },
  {
    "OBJECT_NAME": "STARLINK-5217",
    "OBJECT_ID": "2022-136AZ",
    "EPOCH": "2025-06-21T17:36:52.940448",
    "MEAN_MOTION": 15.08833467,
    "ECCENTRICITY": 0.0001338,
    "INCLINATION": 53.2183,
    "RA_OF_ASC_NODE": 65.9296,
    "ARG_OF_PERICENTER": 90.9561,
    "MEAN_ANOMALY": 269.1585,
    "EPHEMERIS_TYPE": 0,
    "CLASSIFICATION_TYPE": "U",
    "NORAD_CAT_ID": 54098,
    "ELEMENT_SET_NO": 999,
    "REV_AT_EPOCH": 14805,
    "BSTAR": 3.2472e-05,
    "MEAN_MOTION_DOT": 2.29e-06,
    "MEAN_MOTION_DDOT": 0
  },
  {
    "OBJECT_NAME": "STARLINK-5198",
    "OBJECT_ID": "2022-136BA",
    "EPOCH": "2025-06-21T09:27:50.065344",
    "MEAN_MOTION": 15.08839673,
    "ECCENTRICITY": 0.000149,
    "INCLINATION": 53.2189,
    "RA_OF_ASC_NODE": 66.6734,
    "ARG_OF_PERICENTER": 91.4307,
    "MEAN_ANOMALY": 268.6856,
    "EPHEMERIS_TYPE": 0,
    "CLASSIFICATION_TYPE": "U",
    "NORAD_CAT_ID": 54099,
    "ELEMENT_SET_NO": 999,
    "REV_AT_EPOCH": 14754,
    "BSTAR": 3.184e-05,
    "MEAN_MOTION_DOT": 2.19e-06,
    "MEAN_MOTION_DDOT": 0
  },
  {
    "OBJECT_NAME": "STARLINK-5185",
    "OBJECT_ID": "2022-136BB",
    "EPOCH": "2025-06-21T17:46:00.629184",
    "MEAN_MOTION": 15.08826118,
    "ECCENTRICITY": 0.000154,
    "INCLINATION": 53.2196,
    "RA_OF_ASC_NODE": 65.2784,
    "ARG_OF_PERICENTER": 96.8228,
    "MEAN_ANOMALY": 263.294,
    "EPHEMERIS_TYPE": 0,
    "CLASSIFICATION_TYPE": "U",
    "NORAD_CAT_ID": 54100,
    "ELEMENT_SET_NO": 999,
    "REV_AT_EPOCH": 14806,
    "BSTAR": 5.2388e-05,
    "MEAN_MOTION_DOT": 5.46e-06,
    "MEAN_MOTION_DDOT": 0
  },
  {
    "OBJECT_NAME": "STARLINK-5204",
    "OBJECT_ID": "2022-136BC",
    "EPOCH": "2025-06-20T22:42:04.831200",
    "MEAN_MOTION": 15.08841129,
    "ECCENTRICITY": 0.0001467,
    "INCLINATION": 53.2171,
    "RA_OF_ASC_NODE": 53.8936,
    "ARG_OF_PERICENTER": 89.7482,
    "MEAN_ANOMALY": 270.3678,
    "EPHEMERIS_TYPE": 0,
    "CLASSIFICATION_TYPE": "U",
    "NORAD_CAT_ID": 54101,
    "ELEMENT_SET_NO": 999,
    "REV_AT_EPOCH": 14815,
    "BSTAR": 4.4745e-05,
    "MEAN_MOTION_DOT": 4.24e-06,
    "MEAN_MOTION_DDOT": 0
  },
  {
    "OBJECT_NAME": "STARLINK-5179",
    "OBJECT_ID": "2022-136BD",
    "EPOCH": "2025-06-21T10:31:30.850464",
    "MEAN_MOTION": 15.08845854,
    "ECCENTRICITY": 0.0001382,
    "INCLINATION": 53.2178,
    "RA_OF_ASC_NODE": 66.9386,
    "ARG_OF_PERICENTER": 88.0049,
    "MEAN_ANOMALY": 272.1102,
    "EPHEMERIS_TYPE": 0,
    "CLASSIFICATION_TYPE": "U",
    "NORAD_CAT_ID": 54102,
    "ELEMENT_SET_NO": 999,
    "REV_AT_EPOCH": 14754,
    "BSTAR": -1.0885e-05,
    "MEAN_MOTION_DOT": -4.61e-06,
    "MEAN_MOTION_DDOT": 0
  },
  {
    "OBJECT_NAME": "STARLINK-5200",
    "OBJECT_ID": "2022-136BE",
    "EPOCH": "2025-06-21T16:13:17.027328",
    "MEAN_MOTION": 15.08826521,
    "ECCENTRICITY": 0.0001582,
    "INCLINATION": 53.2181,
    "RA_OF_ASC_NODE": 45.6402,
    "ARG_OF_PERICENTER": 90.397,
    "MEAN_ANOMALY": 269.7204,
    "EPHEMERIS_TYPE": 0,
    "CLASSIFICATION_TYPE": "U",
    "NORAD_CAT_ID": 54103,
    "ELEMENT_SET_NO": 999,
    "REV_AT_EPOCH": 14833,
    "BSTAR": 0.00027623,
    "MEAN_MOTION_DOT": 4.109e-05,
    "MEAN_MOTION_DDOT": 0
  },
  {
    "OBJECT_NAME": "STARLINK-5203",
    "OBJECT_ID": "2022-136BF",
    "EPOCH": "2025-06-20T07:53:03.433344",
    "MEAN_MOTION": 15.08836634,
    "ECCENTRICITY": 0.0001521,
    "INCLINATION": 53.2177,
    "RA_OF_ASC_NODE": 36.4604,
    "ARG_OF_PERICENTER": 90.2627,
    "MEAN_ANOMALY": 269.8539,
    "EPHEMERIS_TYPE": 0,
    "CLASSIFICATION_TYPE": "U",
    "NORAD_CAT_ID": 54104,
    "ELEMENT_SET_NO": 999,
    "REV_AT_EPOCH": 14787,
    "BSTAR": -1.3205e-06,
    "MEAN_MOTION_DOT": -3.09e-06,
    "MEAN_MOTION_DDOT": 0
  },
  {
    "OBJECT_NAME": "STARLINK-5290",
    "OBJECT_ID": "2022-141A",
    "EPOCH": "2025-06-21T19:22:45.852960",
    "MEAN_MOTION": 15.08858596,
    "ECCENTRICITY": 0.0001384,
    "INCLINATION": 53.2171,
    "RA_OF_ASC_NODE": 105.2128,
    "ARG_OF_PERICENTER": 89.0938,
    "MEAN_ANOMALY": 271.0213,
    "EPHEMERIS_TYPE": 0,
    "CLASSIFICATION_TYPE": "U",
    "NORAD_CAT_ID": 54157,
    "ELEMENT_SET_NO": 999,
    "REV_AT_EPOCH": 14633,
    "BSTAR": 0.00018274,
    "MEAN_MOTION_DOT": 2.623e-05,
    "MEAN_MOTION_DDOT": 0
  },
  {
    "OBJECT_NAME": "STARLINK-5297",
    "OBJECT_ID": "2022-141B",
    "EPOCH": "2025-06-21T02:18:41.861376",
    "MEAN_MOTION": 15.08835106,
    "ECCENTRICITY": 0.0001201,
    "INCLINATION": 53.2181,
    "RA_OF_ASC_NODE": 108.59,
    "ARG_OF_PERICENTER": 78.165,
    "MEAN_ANOMALY": 281.9477,
    "EPHEMERIS_TYPE": 0,
    "CLASSIFICATION_TYPE": "U",
    "NORAD_CAT_ID": 54158,
    "ELEMENT_SET_NO": 999,
    "REV_AT_EPOCH": 14622,
    "BSTAR": 4.78e-05,
    "MEAN_MOTION_DOT": 4.73e-06,
    "MEAN_MOTION_DDOT": 0
  }
]